*******************************************************************************
 Revised: April 12, 2021                 Earth                              399
 
 GEOPHYSICAL PROPERTIES (revised May 9, 2022):
  Vol. Mean Radius (km)    = 6371.01+-0.02   Mass x10^24 (kg)= 5.97219+-0.0006
  Equ. radius, km          = 6378.137        Mass layers:
  Polar axis, km           = 6356.752          Atmos         = 5.1   x 10^18 kg
  Flattening               = 1/298.257223563   oceans        = 1.4   x 10^21 kg
  Density, g/cm^3          = 5.51              crust         = 2.6   x 10^22 kg
  J2 (IERS 2010)           = 0.00108262545     mantle        = 4.043 x 10^24 kg
  g_p, m/s^2  (polar)      = 9.8321863685      outer core    = 1.835 x 10^24 kg
  g_e, m/s^2  (equatorial) = 9.7803267715      inner core    = 9.675 x 10^22 kg
  g_o, m/s^2               = 9.82022         Fluid core rad  = 3480 km
  GM, km^3/s^2             = 398600.435436   Inner core rad  = 1215 km
  GM 1-sigma, km^3/s^2     =      0.0014     Escape velocity = 11.186 km/s
  Rot. Rate (rad/s)        = 0.00007292115   Surface area:
  Mean sidereal day, hr    = 23.9344695944     land          = 1.48 x 10^8 km
  Mean solar day 2000.0, s = 86400.002         sea           = 3.62 x 10^8 km
  Mean solar day 1820.0, s = 86400.0         Love no., k2    = 0.299
  Moment of inertia        = 0.3308          Atm. pressure   = 1.0 bar
  Mean surface temp (Ts), K= 287.6           Volume, km^3    = 1.08321 x 10^12
  Mean effect. temp (Te), K= 255             Magnetic moment = 0.61 gauss Rp^3
  Geometric albedo         = 0.367           Vis. mag. V(1,0)= -3.86
  Solar Constant (W/m^2)   = 1367.6 (mean), 1414 (perihelion), 1322 (aphelion)
 HELIOCENTRIC ORBIT CHARACTERISTICS:
  Obliquity to orbit, deg  = 23.4392911  Sidereal orb period  = 1.0000174 y
  Orbital speed, km/s      = 29.79       Sidereal orb period  = 365.25636 d
  Mean daily motion, deg/d = 0.9856474   Hill's sphere radius = 234.9       
*******************************************************************************


*******************************************************************************
Ephemeris / WWW_USER Sun Mar  5 17:35:07 2023 Pasadena, USA      / Horizons
*******************************************************************************
Target body name: Earth (399)                     {source: DE441}
Center body name: Sun (10)                        {source: DE441}
Center-site name: BODY CENTER
*******************************************************************************
Start time      : A.D. 2015-Jan-01 00:00:00.0000 TDB
Stop  time      : A.D. 2023-Jan-01 00:00:00.0000 TDB
Step-size       : 1440 minutes
*******************************************************************************
Center geodetic : 0.0, 0.0, 0.0                   {E-lon(deg),Lat(deg),Alt(km)}
Center cylindric: 0.0, 0.0, 0.0                   {E-lon(deg),Dxy(km),Dz(km)}
Center radii    : 696000.0, 696000.0, 696000.0 km {Equator_a, b, pole_c}
Output units    : KM-S
Calendar mode   : Mixed Julian/Gregorian
Output type     : GEOMETRIC cartesian states
Output format   : 3 (position, velocity, LT, range, range-rate)
Reference frame : Ecliptic of J2000.0
*******************************************************************************
            JDTDB,            Calendar Date (TDB),                      X,                      Y,                      Z,                     VX,                     VY,                     VZ,                     LT,                     RG,                     RR,
**************************************************************************************************************************************************************************************************************************************************************************
$$SOE
2457230.500000000, A.D. 2015-Jul-27 00:00:00.0000,  8.378374046378323E+07, -1.267404133290727E+08,  3.578627607703209E+03,  2.435409951908870E+01,  1.631934957712210E+01, -1.054099112019813E-03,  5.067852762273975E+02,  1.519304036384204E+08, -1.832652348380538E-01,
2457231.500000000, A.D. 2015-Jul-28 00:00:00.0000,  8.587595905335778E+07, -1.253127000819692E+08,  3.497138333536685E+03,  2.407583136726698E+01,  1.672876592776537E+01, -8.276772394486542E-04,  5.067315450431434E+02,  1.519142954346217E+08, -1.895260850118857E-01,
2457232.500000000, A.D. 2015-Jul-29 00:00:00.0000,  8.794386421390912E+07, -1.238498209547958E+08,  3.436225181065500E+03,  2.379131557503115E+01,  1.713337887863129E+01, -5.798475355360821E-04,  5.066760804790464E+02,  1.518976675766192E+08, -1.953004449254435E-01,
2457233.500000000, A.D. 2015-Jul-30 00:00:00.0000,  8.998692270696844E+07, -1.223521892542713E+08,  3.397152797728777E+03,  2.350069838916954E+01,  1.753323464738548E+01, -3.247679390367963E-04,  5.066190155175886E+02,  1.518805599315580E+08, -2.006452664349990E-01,
2457234.500000000, A.D. 2015-Jul-31 00:00:00.0000,  9.200461218078683E+07, -1.208202126765437E+08,  3.379812605492771E+03,  2.320408201343142E+01,  1.792841507138627E+01, -7.991554088793151E-05,  5.065604605187388E+02,  1.518630055845247E+08, -2.056613812639639E-01,
2457235.500000000, A.D. 2015-Aug-01 00:00:00.0000,  9.399641649499439E+07, -1.192542908891747E+08,  3.382492766216397E+03,  2.290150536974480E+01,  1.831902019128908E+01,  1.354245475821969E-04,  5.065004903741014E+02,  1.518450269874572E+08, -2.104930650401721E-01,
2457236.500000000, A.D. 2015-Aug-02 00:00:00.0000,  9.596181974509843E+07, -1.176548151340722E+08,  3.401826729662716E+03,  2.259293467972163E+01,  1.870513959262341E+01,  3.027234906278764E-04,  5.064391334990898E+02,  1.518266326590822E+08, -2.153154158564803E-01,
2457237.500000000, A.D. 2015-Aug-03 00:00:00.0000,  9.790030016079484E+07, -1.160221705455789E+08,  3.432987546488643E+03,  2.227827066085278E+01,  1.908681991903308E+01,  4.071819838484814E-04,  5.063763661531581E+02,  1.518078154821632E+08, -2.203107234882110E-01,
2457238.500000000, A.D. 2015-Aug-04 00:00:00.0000,  9.981132537829538E+07, -1.143567410390573E+08,  3.470120568573475E+03,  2.195737243783246E+01,  1.946403971331983E+01,  4.401048032649513E-04,  5.063121143633718E+02,  1.517885532801723E+08, -2.256408797486717E-01,
2457239.500000000, A.D. 2015-Aug-05 00:00:00.0000,  1.016943502414091E+08, -1.126589157240070E+08,  3.506924396857619E+03,  2.163009038339072E+01,  1.983670016484686E+01,  3.998716730659879E-04,  5.062462632170067E+02,  1.517688116031414E+08, -2.314253049666831E-01,
2457240.500000000, A.D. 2015-Aug-06 00:00:00.0000,  1.035488174209511E+08, -1.109290953629618E+08,  3.537247501932085E+03,  2.129629674710589E+01,  2.020463278019752E+01,  2.913694912951570E-04,  5.061786708897124E+02,  1.517485479331999E+08, -2.377307216470140E-01,
2457241.500000000, A.D. 2015-Aug-07 00:00:00.0000,  1.053741602740291E+08, -1.091676976365930E+08,  3.555586174018681E+03,  2.095590603956592E+01,  2.056761799749848E+01,  1.243946010260899E-04,  5.061091838184351E+02,  1.517277162333024E+08, -2.445729853060859E-01,
2457242.500000000, A.D. 2015-Aug-08 00:00:00.0000,  1.071698069355083E+08, -1.073751606257587E+08,  3.557426496066153E+03,  2.060888336200147E+01,  2.092540658179560E+01, -8.824517267491672E-05,  5.060376501093153E+02,  1.517062709668156E+08, -2.519265808055436E-01,
2457243.500000000, A.D. 2015-Aug-09 00:00:00.0000,  1.089351847053231E+08, -1.055519445498480E+08,  3.539430044122040E+03,  2.025524363668219E+01,  2.127773792958867E+01, -3.323873390375098E-04,  5.059639297578319E+02,  1.516841701614398E+08, -2.597364537866734E-01,
2457244.500000000, A.D. 2015-Aug-10 00:00:00.0000,  1.106697241357702E+08, -1.036985321465693E+08,  3.499495548337698E+03,  1.989504612750711E+01,  2.162435313023683E+01, -5.937190546463356E-04,  5.058879015865234E+02,  1.516613774890860E+08, -2.679285548862704E-01,
2457245.500000000, A.D. 2015-Aug-11 00:00:00.0000,  1.123728625704077E+08, -1.018154281358990E+08,  3.436735310956836E+03,  1.952838764721634E+01,  2.196500332714384E+01, -8.585644016783078E-04,  5.058094675126034E+02,  1.516378635452745E+08, -2.764177655104579E-01,
2457246.500000000, A.D. 2015-Aug-12 00:00:00.0000,  1.140440471052256E+08, -9.990315810915062E+07,  3.351396887458861E+03,  1.915539612264103E+01,  2.229945493214332E+01, -1.114387658720517E-03,  5.057285548907937E+02,  1.516136065514989E+08, -2.851134460951977E-01,
2457247.500000000, A.D. 2015-Aug-13 00:00:00.0000,  1.156827370244178E+08, -9.796226705213466E+07,  3.244749014638364E+03,  1.877622484951481E+01,  2.262749305843295E+01, -1.350133527452613E-03,  5.056451175007120E+02,  1.515885926512373E+08, -2.939234393192465E-01,
2457248.500000000, A.D. 2015-Aug-14 00:00:00.0000,  1.172884057601162E+08, -9.599331762072249E+07,  3.118942667931318E+03,  1.839104715667823E+01,  2.294892387992811E+01, -1.556468169495062E-03,  5.055591355111790E+02,  1.515628158992514E+08, -3.027572586065670E-01,
2457249.500000000, A.D. 2015-Aug-15 00:00:00.0000,  1.188605423976168E+08, -9.399688825341141E+07,  2.976855071812868E+03,  1.800005119426671E+01,  2.326357602909085E+01, -1.725931318041773E-03,  5.054706145982832E+02,  1.515362779971900E+08, -3.115287903831434E-01,
2457250.500000000, A.D. 2015-Aug-16 00:00:00.0000,  1.203986527351439E+08, -9.197357121051171E+07,  2.821924955964088E+03,  1.760343486799735E+01,  2.357130086587256E+01, -1.852983748126036E-03,  5.053795843587836E+02,  1.515089878179381E+08, -3.201584475058201E-01,
2457251.500000000, A.D. 2015-Aug-17 00:00:00.0000,  1.219022599239770E+08, -8.992397064346194E+07,  2.657988691974431E+03,  1.720140126923134E+01,  2.387197151328869E+01, -1.933939376208116E-03,  5.052860962132781E+02,  1.514809607770031E+08, -3.285745077741181E-01,
2457252.500000000, A.D. 2015-Aug-18 00:00:00.0000,  1.233709047532155E+08, -8.784870079563659E+07,  2.489126865483820E+03,  1.679415510240398E+01,  2.416548083551336E+01, -1.966796616461153E-03,  5.051902210717520E+02,  1.514522181326639E+08, -3.367133969819538E-01,
